{
    "links": {
        "self": "http://www.neowsapp.com/rest/v1/neo/3698502?api_key=iIulBulltgU6a56xZRHN4H3l9WmuAYTsLGpBGhQ2"
    },
    "id": "3698502",
    "neo_reference_id": "3698502",
    "name": "(2014 HC197)",
    "designation": "2014 HC197",
    "nasa_jpl_url": "http://ssd.jpl.nasa.gov/sbdb.cgi?sstr=3698502",
    "absolute_magnitude_h": 23.2,
    "estimated_diameter": {
        "kilometers": {
            "estimated_diameter_min": 0.0608912622,
            "estimated_diameter_max": 0.1361570015
        },
        "meters": {
            "estimated_diameter_min": 60.8912622106,
            "estimated_diameter_max": 136.1570015386
        },
        "miles": {
            "estimated_diameter_min": 0.0378360645,
            "estimated_diameter_max": 0.0846040122
        },
        "feet": {
            "estimated_diameter_min": 199.7744887109,
            "estimated_diameter_max": 446.7093369279
        }
    },
    "is_potentially_hazardous_asteroid": false,
    "close_approach_data": [
        {
            "close_approach_date": "2014-05-15",
            "close_approach_date_full": "2014-May-15 11:22",
            "epoch_date_close_approach": 1400152920000,
            "relative_velocity": {
                "kilometers_per_second": "7.002816902",
                "kilometers_per_hour": "25210.1408472512",
                "miles_per_hour": "15664.6011281156"
            },
            "miss_distance": {
                "astronomical": "0.2831294135",
                "lunar": "110.1373418515",
                "kilometers": "42355557.193949245",
                "miles": "26318522.834199781"
            },
            "orbiting_body": "Earth"
        }
    ],
    "orbital_data": {
        "orbit_id": "4",
        "orbit_determination_date": "2017-04-06 08:41:00",
        "first_observation_date": "2014-04-23",
        "last_observation_date": "2014-04-29",
        "data_arc_in_days": 6,
        "observations_used": 41,
        "orbit_uncertainty": "9",
        "minimum_orbit_intersection": ".267536",
        "jupiter_tisserand_invariant": "4.138",
        "epoch_osculation": "2456774.5",
        "eccentricity": ".278548602372193",
        "semi_major_axis": "1.692117195637236",
        "inclination": "13.97256471888506",
        "ascending_node_longitude": "212.0043908411827",
        "orbital_period": "803.9778524215457",
        "perihelion_distance": "1.220780315742529",
        "perihelion_argument": "53.52861770045986",
        "aphelion_distance": "2.163454075531943",
        "perihelion_time": "2456835.686501996081",
        "mean_anomaly": "332.6023040905363",
        "mean_motion": ".4477735287305439",
        "equinox": "J2000",
        "orbit_class": {
            "orbit_class_type": "AMO",
            "orbit_class_description": "Near-Earth asteroid orbits similar to that of 1221 Amor",
            "orbit_class_range": "1.017 AU < q (perihelion) < 1.3 AU"
        }
    },
    "is_sentry_object": false
}